ONEWEB-0113             
1 48050U 21025J   21131.81284216 -.00312224  00000-0 -43185-1 0  9995
2 48050  87.4804 333.6743 0014169  75.6138 284.6656 14.79989497  8541
ONEWEB-0112             
1 48051U 21025K   21133.91667824 -.01342564  00000-0 -19144+0 0  9996
2 48051  87.5194 332.9923 0008815  90.7549 321.9772 14.79947495  8852
ONEWEB-0156             
1 48052U 21025L   21133.91667824 -.01334729  00000-0 -21086+0 0  9999
2 48052  87.4905 333.0581 0012799  96.2657 301.1059 14.75549372  8824
ONEWEB-0161             
1 48053U 21025M   21133.91667824 -.01387944  00000-0 -29705+0 0  9993
2 48053  87.4618 333.0923 0010326  88.9932 353.5301 14.62395141  8813
ONEWEB-0158             
1 48054U 21025N   21134.16667824 -.01436190  00000-0 -22409+0 0  9994
2 48054  87.5444 332.9125 0011029  94.9928  32.3890 14.76338727  8892
ONEWEB-0157             
1 48055U 21025P   21133.91667824 -.01348244  00000-0 -22641+0 0  9997
2 48055  87.5563 333.0715 0010831  78.0813  32.3149 14.72984182  8859
ONEWEB-0162             
1 48056U 21025Q   21133.91667824 -.01370174  00000-0 -29272+0 0  9992
2 48056  87.4687 333.0999 0009622  82.6275 313.6615 14.62438141  8827
ONEWEB-0155             
1 48057U 21025R   21134.25001157 -.00108888  00000-0 -13823-1 0  9999
2 48057  87.5405 332.8735 0012803  89.5760 333.7161 14.82374526  8931
ONEWEB-0149             
1 48058U 21025S   21133.91667824 -.01377914  00000-0 -27714+0 0  9992
2 48058  87.4800 333.0797 0011477 103.2847 338.4234 14.65139263  8815
ONEWEB-0148             
1 48059U 21025T   21133.91667824 -.01365996  00000-0 -25235+0 0  9996
2 48059  87.4986 333.0260 0012086  84.7749  50.1437 14.68861356  8852
ONEWEB-0160             
1 48060U 21025U   21133.83334491 -.01418775  00000-0 -28851+0 0  9991
2 48060  87.4762 333.1085 0008148  96.4250 129.9690 14.64788265  8829
ONEWEB-0163             
1 48061U 21025V   21133.91667824 -.01348981  00000-0 -19141+0 0  9993
2 48061  87.5612 332.9589 0013452  87.3988  80.8478 14.80112574  8889
ONEWEB-0159             
1 48062U 21025W   21133.91667824 -.01387432  00000-0 -21233+0 0  9993
2 48062  87.5465 333.0152 0008751  75.9317  17.1729 14.77072305  8862
ONEWEB-0164             
1 48063U 21025X   21133.91667824 -.01395429  00000-0 -25907+0 0  9991
2 48063  87.4955 333.0611 0013000  87.2331   0.1165 14.68704233  8858
ONEWEB-0167             
1 48064U 21025Y   21133.91667824 -.01352453  00000-0 -26449+0 0  9994
2 48064  87.4875 333.0746 0011015 102.9171 336.2833 14.66328339  8829
ONEWEB-0166             
1 48065U 21025Z   21133.91667824 -.01348498  00000-0 -19013+0 0  9998
2 48065  87.5644 332.9730 0012975  85.1470 122.7570 14.80383580  8883
ONEWEB-0151             
1 48066U 21025AA  21134.25001157 -.01430022  00000-0 -23966+0 0  9995
2 48066  87.5341 332.9233 0008530  83.3545 198.0981 14.73292229  8918
ONEWEB-0170             
1 48067U 21025AB  21133.03152228 -.00287867  00000-0 -47495-1 0  9998
2 48067  87.4900 333.3343 0011442  94.1186 266.1340 14.72344585  8696
ONEWEB-0168             
1 48068U 21025AC  21133.91667824 -.01370725  00000-0 -28170+0 0  9993
2 48068  87.4742 333.0819 0009433  96.4981 159.9195 14.64181713  8804
ONEWEB-0173             
1 48069U 21025AD  21133.91667824 -.01278461  00000-0 -17492+0 0  9993
2 48069  87.5205 332.9723 0009577  88.1671  57.7059 14.82031229  8861
ONEWEB-0171             
1 48070U 21025AE  21133.91667824 -.01381732  00000-0 -20529+0 0  9996
2 48070  87.5545 332.9810 0012367  92.5997 278.1840 14.78268921  8883
ONEWEB-0172             
1 48071U 21025AF  21134.16667824 -.01475890  00000-0 -23987+0 0  9995
2 48071  87.5286 332.9198 0009233  82.1803 118.8705 14.74713125  8892
ONEWEB-0174             
1 48072U 21025AG  21133.91667824 -.01331222  00000-0 -16054+0 0  9995
2 48072  87.5693 332.9194 0013744  71.0907 172.1363 14.87287470  8903
ONEWEB-0175             
1 48073U 21025AH  21133.91667824 -.01385701  00000-0 -28387+0 0  9999
2 48073  87.4711 333.0942 0009683 100.1231 234.6001 14.64359755  8823
ONEWEB-0177             
1 48074U 21025AJ  21134.25001157 -.01420638  00000-0 -19244+0 0  9990
2 48074  87.5806 332.8303 0013964  72.5730  11.5267 14.82199734  8949
ONEWEB-0178             
1 48075U 21025AK  21134.25001157 -.01347099  00000-0 -15974+0 0  9996
2 48075  87.5775 332.8151 0014072  71.8484  58.2925 14.88004342  8951
ONEWEB-0108             
1 48076U 21025AL  21133.91667824 -.01368050  00000-0 -18658+0 0  9990
2 48076  87.5641 332.9528 0012644  73.0187 294.3087 14.81817438  8896
ONEWEB-0169             
1 48077U 21025AM  21134.25001157 -.01458835  00000-0 -27166+0 0  9995
2 48077  87.5031 332.9586 0012927  83.6813  97.4542 14.68728614  8846
ONEWEB-0176             
1 48210U 21031A   21134.16667824 -.01444633  00000-0 -38636-1 0  9997
2 48210  87.4028 306.6750 0006046 197.8155 157.4312 15.41019521  4090
ONEWEB-0184             
1 48211U 21031B   21134.16667824 -.01468025  00000-0 -46351-1 0  9992
2 48211  87.4060 306.6860 0009188 179.2022  95.9277 15.35953128  2790
ONEWEB-0179             
1 48212U 21031C   21134.16667824 -.00041734  00000-0 -10917-2 0  9996
2 48212  87.3986 306.6950 0007835 205.2620  15.4355 15.38941446  2807
ONEWEB-0180             
1 48213U 21031D   21134.16667824 -.01429104  00000-0 -57089-1 0  9999
2 48213  87.4079 306.7080 0006064 187.6810 286.6432 15.28428907  2803
ONEWEB-0218             
1 48214U 21031E   21134.16667824 -.00042617  00000-0 -98409-3 0  9992
2 48214  87.4000 306.6593 0011018 171.2651 293.0463 15.42690352  2811
ONEWEB-0209             
1 48215U 21031F   21133.50001157 -.00009514  00000-0 -22823-3 0  9997
2 48215  87.3999 306.9106 0008420 198.2213  97.9658 15.41562640  2013
ONEWEB-0198             
1 48216U 21031G   21134.16667824 -.01449774  00000-0 -40122-1 0  9997
2 48216  87.4017 306.6730 0005734 185.6965 154.3648 15.40003294  2791
ONEWEB-0189             
1 48217U 21031H   21133.50001157 -.01417223  00000-0 -43256-1 0  9991
2 48217  87.4033 306.9182 0009420 192.2259 334.1169 15.36890957  1790
ONEWEB-0196             
1 48218U 21031J   21134.16667824 -.01466268  00000-0 -56858-1 0  9999
2 48218  87.4028 306.7062 0005442 192.7861 297.2112 15.29486329  2800
ONEWEB-0183             
1 48219U 21031K   21133.83334491 -.01344594  00000-0 -36869-1 0  9991
2 48219  87.4020 306.7941 0005311 191.6840 100.8630 15.40561393  2755
ONEWEB-0185             
1 48220U 21031L   21133.50001157 -.01422025  00000-0 -41200-1 0  9998
2 48220  87.4040 306.9184 0008571 179.9994  17.3695 15.38513368  2052
ONEWEB-0187             
1 48221U 21031M   21134.16667824 -.01469582  00000-0 -50659-1 0  9998
2 48221  87.4058 306.6942 0008929 200.4861  15.5271 15.33210012  2809
ONEWEB-0192             
1 48222U 21031N   21133.50001157 -.01445410  00000-0 -54856-1 0  9994
2 48222  87.4026 306.9495 0006272 186.5339 211.7202 15.30123816  1775
ONEWEB-0219             
1 48223U 21031P   21133.50001157 -.00003030  00000-0 -70940-4 0  9997
2 48223  87.3967 306.8930 0010829 176.5497 181.3969 15.42572006  2055
ONEWEB-0202             
1 48224U 21031Q   21133.50001157 -.00008190  00000-0 -19447-3 0  9994
2 48224  87.3992 306.9050 0009635 195.5612 118.8675 15.41879761  2057
ONEWEB-0204             
1 48225U 21031R   21133.83334491 -.01369375  00000-0 -37608-1 0  9994
2 48225  87.4043 306.8014 0005935 183.4047 102.6846 15.40066999  2750
ONEWEB-0205             
1 48226U 21031S   21134.16667824 -.01465620  00000-0 -49246-1 0  9992
2 48226  87.4046 306.6884 0010031 193.4379  35.4580 15.33990273  2794
ONEWEB-0206             
1 48227U 21031T   21134.16667824 -.01475794  00000-0 -56819-1 0  9990
2 48227  87.4009 306.7009 0005994 192.1053 309.1026 15.29732954  2792
ONEWEB-0182             
1 48228U 21031U   21134.16667824 -.01444352  00000-0 -39300-1 0  9993
2 48228  87.4008 306.6729 0005732 194.1061 153.1103 15.40504173  2809
ONEWEB-0186             
1 48229U 21031V   21134.16667824 -.00043294  00000-0 -10843-2 0  9995
2 48229  87.3986 306.6792 0007535 172.3149 135.4970 15.40278398  2804
ONEWEB-0181             
1 48230U 21031W   21134.16667824 -.01467569  00000-0 -51438-1 0  9997
2 48230  87.4049 306.6895 0008466 201.8730   3.5456 15.32686227  2796
ONEWEB-0188             
1 48231U 21031X   21134.16667824 -.01469777  00000-0 -61783-1 0  9995
2 48231  87.3980 306.7155 0006928 179.3390 257.0550 15.26844784  2790
ONEWEB-0220             
1 48232U 21031Y   21133.50001157 -.00008333  00000-0 -19482-3 0  9991
2 48232  87.3981 306.8983 0010765 182.0250 160.8524 15.42330259  2058
ONEWEB-0165             
1 48233U 21031Z   21134.16667824 -.00039981  00000-0 -95225-3 0  9996
2 48233  87.3978 306.6609 0009282 193.4588 211.3206 15.41773506  2807
ONEWEB-0199             
1 48234U 21031AA  21134.16667824 -.01463093  00000-0 -43197-1 0  9992
2 48234  87.4050 306.6811 0006888 174.2557 139.3371 15.38046285  2790
ONEWEB-0203             
1 48235U 21031AB  21134.16667824 -.01468766  00000-0 -49010-1 0  9995
2 48235  87.4075 306.6939 0009590 193.0450  44.5577 15.34222577  2794
ONEWEB-0197             
1 48236U 21031AC  21134.16667824 -.01472576  00000-0 -55161-1 0  9994
2 48236  87.4040 306.6996 0006451 203.8002 320.9686 15.30603642  2790
ONEWEB-0194             
1 48237U 21031AD  21134.16667824 -.01283691  00000-0 -33997-1 0  9996
2 48237  87.4001 306.6712 0006350 201.4475 162.2826 15.41443446  2799
ONEWEB-0193             
1 48238U 21031AE  21133.50001157 -.01440063  00000-0 -41094-1 0  9990
2 48238  87.4015 306.9203 0008135 178.3951  26.9884 15.39020207  1766
ONEWEB-0191             
1 48239U 21031AF  21134.16667824 -.01480593  00000-0 -54580-1 0  9999
2 48239  87.4044 306.6963 0007475 205.5321 333.3735 15.31121788  2791
ONEWEB-0195             
1 48240U 21031AG  21134.16667824 -.01472228  00000-0 -60527-1 0  9995
2 48240  87.4040 306.7069 0006925 176.0607 273.6907 15.27578803  2780
